NORAD_CAT_ID,OBJECT_NAME,OBJECT_TYPE,EPOCH,MEAN_MOTION,ECCENTRICITY,INCLINATION,RA_OF_ASC_NODE,ARG_OF_PERICENTER,MEAN_ANOMALY,BSTAR,MEAN_MOTION_DOT,MEAN_MOTION_DDOT,TLE_LINE0,TLE_LINE1,TLE_LINE2,SEMIMAJOR_AXIS,PERIOD,APOGEE,PERIGEE,DECAYED
55916.0,STARLINK-5796,PAYLOAD,2023-05-01 22:00:00,15.39180509,0.0003544,70.0008,55.5257,269.1653,63.8078,-0.027311,-0.00972111,0.0,0 STARLINK-5796,1 55916U 23037C   23121.91667824 -.00972111  00000-0 -27311-1 0  9991,2 55916  70.0008  55.5257 0003544 269.1653  63.8078 15.39180509  1307,6826.668,93.556,450.953,446.114,0.0
55916.0,STARLINK-5796,PAYLOAD,2023-05-02 00:00:02,15.38989558,0.0003485,70.0007,55.3021,272.8452,161.7867,-0.026418,-0.00937493,0.0,0 STARLINK-5796,1 55916U 23037C   23122.00002315 -.00937493  00000-0 -26418-1 0  9991,2 55916  70.0007  55.3021 0003485 272.8452 161.7867 15.38989558  7596,6827.233,93.568,451.477,446.719,0.0
55916.0,STARLINK-5796,PAYLOAD,2023-05-02 14:00:01,15.37803734,0.0003359,70.0009,53.7378,270.4232,153.9235,-0.024745,-0.00851556,0.0,0 STARLINK-5796,1 55916U 23037C   23122.58335648 -.00851556  00000-0 -24745-1 0  9998,2 55916  70.0009  53.7378 0003359 270.4232 153.9235 15.37803734  1300,6830.742,93.64,454.902,450.313,0.0
55916.0,STARLINK-5796,PAYLOAD,2023-05-02 22:00:00,15.37223367,0.0003353,70.0011,52.8454,271.5431,197.1885,-0.029201,-0.00974646,0.0,0 STARLINK-5796,1 55916U 23037C   23122.91667824 -.00974646  00000-0 -29201-1 0  9997,2 55916  70.0011  52.8454 0003353 271.5431 197.1885 15.37223367  1304,6832.461,93.675,456.617,452.036,0.0
55916.0,STARLINK-5796,PAYLOAD,2023-05-03 14:00:01,15.35848494,0.0003195,70.0012,51.0627,268.7459,286.5991,-0.02633,-0.00850557,0.0,0 STARLINK-5796,1 55916U 23037C   23123.58334491 -.00850557  00000-0 -26330-1 0  9996,2 55916  70.0012  51.0627 0003195 268.7459 286.5991 15.35848494  7848,6836.538,93.759,460.588,456.219,0.0
55916.0,STARLINK-5796,PAYLOAD,2023-05-03 22:00:00,15.35256316,0.000328,70.0016,50.1729,268.8478,328.6064,-0.030519,-0.00957506,0.0,0 STARLINK-5796,1 55916U 23037C   23123.91667824 -.00957506  00000-0 -30519-1 0  9998,2 55916  70.0016  50.1729 0003280 268.8478 328.6064 15.35256316  1302,6838.296,93.795,462.404,457.918,0.0
55916.0,STARLINK-5796,PAYLOAD,2023-05-04 06:00:00,15.34575895,0.0003357,70.0013,49.2837,273.4283,5.3689,-0.02909,-0.00898124,0.0,0 STARLINK-5796,1 55916U 23037C   23124.25001157 -.00898124  00000-0 -29090-1 0  9999,2 55916  70.0013  49.2837 0003357 273.4283   5.3689 15.34575895  7942,6840.317,93.837,464.479,459.886,0.0
55916.0,STARLINK-5796,PAYLOAD,2023-05-04 14:00:01,15.33886086,0.0003351,70.0015,48.3955,265.2686,54.1675,-0.027744,-0.0084242,0.0,0 STARLINK-5796,1 55916U 23037C   23124.58335648 -.00842420  00000-0 -27744-1 0  9992,2 55916  70.0015  48.3955 0003351 265.2686  54.1675 15.33886086  1302,6842.368,93.879,466.526,461.94,0.0
55916.0,STARLINK-5796,PAYLOAD,2023-05-04 22:00:01,15.33296475,0.0003378,70.0019,47.5082,265.795,93.402,-0.032364,-0.00954225,0.0,0 STARLINK-5796,1 55916U 23037C   23124.91668981 -.00954225  00000-0 -32364-1 0  9999,2 55916  70.0019  47.5082 0003378 265.7950  93.4020 15.33296475  1291,6844.122,93.915,468.299,463.675,0.0
55916.0,STARLINK-5796,PAYLOAD,2023-05-05 00:00:00,15.3309865,0.0003285,70.0018,47.2866,268.6129,190.3551,-0.030656,-0.00902664,0.0,0 STARLINK-5796,1 55916U 23037C   23125.00001157 -.00902664  00000-0 -30656-1 0  9998,2 55916  70.0018  47.2866 0003285 268.6129 190.3551 15.33098650  8056,6844.711,93.927,468.824,464.327,0.0
55916.0,STARLINK-5796,PAYLOAD,2023-05-05 22:00:00,15.31334638,0.0003184,70.002,44.8515,266.2291,207.541,-0.034194,-0.0094829,0.0,0 STARLINK-5796,1 55916U 23037C   23125.91667824 -.00948290  00000-0 -34194-1 0  9993,2 55916  70.0020  44.8515 0003184 266.2291 207.5410 15.31334638  1308,6849.966,94.036,474.012,469.65,0.0
55916.0,STARLINK-5796,PAYLOAD,2023-05-06 02:00:01,15.30964929,0.0003214,70.0019,44.4095,267.8921,44.3097,-0.031407,-0.00867723,0.0,0 STARLINK-5796,1 55916U 23037C   23126.08334491 -.00867723  00000-0 -31407-1 0  9998,2 55916  70.0019  44.4095 0003214 267.8921  44.3097 15.30964929  8223,6851.069,94.058,475.136,470.732,0.0
55916.0,STARLINK-5796,PAYLOAD,2023-05-06 16:00:00,15.29839996,0.000325,70.0016,42.8643,262.6534,22.4725,-0.033078,-0.00881333,0.0,0 STARLINK-5796,1 55916U 23037C   23126.66667824 -.00881333  00000-0 -33078-1 0  9990,2 55916  70.0016  42.8643 0003250 262.6534  22.4725 15.29839996  1304,6854.427,94.127,478.52,474.064,0.0
55916.0,STARLINK-5796,PAYLOAD,2023-05-07 06:00:00,15.28718984,0.0003099,70.0015,41.3214,272.1686,343.494,-0.03607,-0.00924446,0.0,0 STARLINK-5796,1 55916U 23037C   23127.25001157 -.00924446  00000-0 -36070-1 0  9995,2 55916  70.0015  41.3214 0003099 272.1686 343.4940 15.28718984  8401,6857.778,94.197,481.768,477.517,0.0
55916.0,STARLINK-5796,PAYLOAD,2023-05-07 14:00:01,15.28020027,0.0003224,70.0015,40.4428,265.4376,23.7574,-0.03327,-0.00841358,0.0,0 STARLINK-5796,1 55916U 23037C   23127.58334491 -.00841358  00000-0 -33270-1 0  9990,2 55916  70.0015  40.4428 0003224 265.4376  23.7574 15.28020027  1306,6859.869,94.24,483.945,479.522,0.0
55916.0,STARLINK-5796,PAYLOAD,2023-05-07 22:00:00,15.27410184,0.0003246,70.0016,39.562,267.9222,54.0038,-0.037843,-0.0094296,0.0,0 STARLINK-5796,1 55916U 23037C   23127.91667824 -.00942960  00000-0 -37843-1 0  9997,2 55916  70.0016  39.5620 0003246 267.9222  54.0038 15.27410184  1309,6861.695,94.277,485.787,481.332,0.0
55916.0,STARLINK-5796,PAYLOAD,2023-05-08 14:00:01,15.26065878,0.0003253,70.0013,37.8058,268.2949,116.7598,-0.035502,-0.00845599,0.0,0 STARLINK-5796,1 55916U 23037C   23128.58334491 -.00845599  00000-0 -35502-1 0  9992,2 55916  70.0013  37.8058 0003253 268.2949 116.7598 15.26065878  8602,6865.724,94.36,489.822,485.355,0.0
55916.0,STARLINK-5796,PAYLOAD,2023-05-08 22:00:00,15.25449544,0.0003227,70.0013,36.929,270.5624,144.8804,-0.039942,-0.00938176,0.0,0 STARLINK-5796,1 55916U 23037C   23128.91667824 -.00938176  00000-0 -39942-1 0  9994,2 55916  70.0013  36.9290 0003227 270.5624 144.8804 15.25449544  1304,6867.573,94.398,491.654,487.222,0.0
55916.0,STARLINK-5796,PAYLOAD,2023-05-09 14:00:01,15.24114111,0.000311,70.001,35.1783,269.4675,204.4072,-0.037936,-0.00851507,0.0,0 STARLINK-5796,1 55916U 23037C   23129.58334491 -.00851507  00000-0 -37936-1 0  9992,2 55916  70.0010  35.1783 0003110 269.4675 204.4072 15.24114111  1301,6871.584,94.481,495.586,491.312,0.0
55916.0,STARLINK-5796,PAYLOAD,2023-05-10 14:00:01,15.22161872,0.0003026,70.0008,32.5584,267.3556,288.2973,-0.040531,-0.00857867,0.0,0 STARLINK-5796,1 55916U 23037C   23130.58334491 -.00857867  00000-0 -40531-1 0  9994,2 55916  70.0008  32.5584 0003026 267.3556 288.2973 15.22161872  1303,6877.458,94.602,501.404,497.242,0.0
55916.0,STARLINK-5796,PAYLOAD,2023-05-10 22:00:00,15.21522605,0.000307,70.001,31.6869,269.9043,311.4504,-0.04383,-0.00917361,0.0,0 STARLINK-5796,1 55916U 23037C   23130.91667824 -.00917361  00000-0 -43830-1 0  9991,2 55916  70.0010  31.6869 0003070 269.9043 311.4504 15.21522605  1303,6879.384,94.642,503.361,499.137,0.0
55916.0,STARLINK-5796,PAYLOAD,2023-05-11 14:00:01,15.20207959,0.0003108,70.0009,29.9462,265.7845,4.6074,-0.043166,-0.00872537,0.0,0 STARLINK-5796,1 55916U 23037C   23131.58334491 -.00872537  00000-0 -43166-1 0  9993,2 55916  70.0009  29.9462 0003108 265.7845   4.6074 15.20207959  1300,6883.35,94.724,507.354,503.075,0.0
55916.0,STARLINK-5796,PAYLOAD,2023-05-11 16:00:00,15.2008016,0.0003196,70.0011,29.729,267.0569,99.2345,-0.046571,-0.00933143,0.0,0 STARLINK-5796,1 55916U 23037C   23131.66667824 -.00933143  00000-0 -46571-1 0  9995,2 55916  70.0011  29.7290 0003196 267.0569  99.2345 15.20080160  9071,6883.736,94.732,507.801,503.401,0.0
55916.0,STARLINK-5796,PAYLOAD,2023-05-11 22:00:00,15.19563223,0.0003143,70.0011,29.0773,269.4464,24.3022,-0.046073,-0.0091102,0.0,0 STARLINK-5796,1 55916U 23037C   23131.91667824 -.00911020  00000-0 -46073-1 0  9990,2 55916  70.0011  29.0773 0003143 269.4464  24.3022 15.19563223  1305,6885.297,94.764,509.326,504.998,0.0
55916.0,STARLINK-5796,PAYLOAD,2023-05-12 12:00:00,15.18399457,0.000303,70.0012,27.5585,267.17,335.5549,-0.044504,-0.0085476,0.0,0 STARLINK-5796,1 55916U 23037C   23132.50001157 -.00854760  00000-0 -44504-1 0  9991,2 55916  70.0012  27.5585 0003030 267.1700 335.5549 15.18399457  1309,6888.814,94.837,512.767,508.592,0.0
55916.0,STARLINK-5796,PAYLOAD,2023-05-12 22:00:00,15.1760564,0.000318,70.0014,26.4755,270.6814,88.4196,-0.048647,-0.00909053,0.0,0 STARLINK-5796,1 55916U 23037C   23132.91667824 -.00909053  00000-0 -48647-1 0  9993,2 55916  70.0014  26.4755 0003180 270.6814  88.4196 15.17605640  1292,6891.216,94.886,515.273,510.89,0.0
55916.0,STARLINK-5796,PAYLOAD,2023-05-13 00:00:02,15.17431868,0.0003031,70.0013,26.2591,274.2064,180.0859,-0.04742,-0.00883564,0.0,0 STARLINK-5796,1 55916U 23037C   23133.00002315 -.00883564  00000-0 -47420-1 0  9998,2 55916  70.0013  26.2591 0003031 274.2064 180.0859 15.17431868  9279,6891.742,94.897,515.696,511.519,0.0
55916.0,STARLINK-5796,PAYLOAD,2023-05-13 14:00:01,15.16299957,0.0003204,70.0015,24.7454,267.9703,130.7792,-0.04896,-0.0088318,0.0,0 STARLINK-5796,1 55916U 23037C   23133.58334491 -.00883180  00000-0 -48960-1 0  9998,2 55916  70.0015  24.7454 0003204 267.9703 130.7792 15.16299957  9361,6895.172,94.968,519.246,514.828,0.0
55916.0,STARLINK-5796,PAYLOAD,2023-05-13 22:00:00,15.15647197,0.0003145,70.0017,23.8817,271.9257,145.4875,-0.051288,-0.0090632,0.0,0 STARLINK-5796,1 55916U 23037C   23133.91667824 -.00906320  00000-0 -51288-1 0  9993,2 55916  70.0017  23.8817 0003145 271.9257 145.4875 15.15647197  1302,6897.151,95.009,521.186,516.847,0.0
55916.0,STARLINK-5796,PAYLOAD,2023-05-14 08:00:01,15.14858869,0.0002952,70.0015,22.8031,272.2544,257.4283,-0.055059,-0.00948011,0.0,0 STARLINK-5796,1 55916U 23037C   23134.33335648 -.00948011  00000-0 -55059-1 0  9999,2 55916  70.0015  22.8031 0002952 272.2544 257.4283 15.14858869  9488,6899.544,95.058,523.446,519.372,0.0
